{
    "links": {
        "self": "http://www.neowsapp.com/rest/v1/neo/3779437?api_key=iIulBulltgU6a56xZRHN4H3l9WmuAYTsLGpBGhQ2"
    },
    "id": "3779437",
    "neo_reference_id": "3779437",
    "name": "(2017 OV67)",
    "designation": "2017 OV67",
    "nasa_jpl_url": "http://ssd.jpl.nasa.gov/sbdb.cgi?sstr=3779437",
    "absolute_magnitude_h": 23.8,
    "estimated_diameter": {
        "kilometers": {
            "estimated_diameter_min": 0.046190746,
            "estimated_diameter_max": 0.1032856481
        },
        "meters": {
            "estimated_diameter_min": 46.1907460282,
            "estimated_diameter_max": 103.2856480504
        },
        "miles": {
            "estimated_diameter_min": 0.0287015901,
            "estimated_diameter_max": 0.0641787064
        },
        "feet": {
            "estimated_diameter_min": 151.544447199,
            "estimated_diameter_max": 338.8636855496
        }
    },
    "is_potentially_hazardous_asteroid": false,
    "close_approach_data": [
        {
            "close_approach_date": "2017-08-07",
            "close_approach_date_full": "2017-Aug-07 10:45",
            "epoch_date_close_approach": 1502102700000,
            "relative_velocity": {
                "kilometers_per_second": "8.6417049629",
                "kilometers_per_hour": "31110.1378664586",
                "miles_per_hour": "19330.6298315226"
            },
            "miss_distance": {
                "astronomical": "0.2015584247",
                "lunar": "78.4062272083",
                "kilometers": "30152711.015675389",
                "miles": "18736025.8240788082"
            },
            "orbiting_body": "Earth"
        }
    ],
    "orbital_data": {
        "orbit_id": "1",
        "orbit_determination_date": "2017-08-04 07:42:04",
        "first_observation_date": "2017-07-25",
        "last_observation_date": "2017-07-29",
        "data_arc_in_days": 4,
        "observations_used": 11,
        "orbit_uncertainty": "8",
        "minimum_orbit_intersection": ".182299",
        "jupiter_tisserand_invariant": "3.404",
        "epoch_osculation": "2457962.5",
        "eccentricity": ".4788003146633921",
        "semi_major_axis": "2.291226434875977",
        "inclination": "13.56225730228891",
        "ascending_node_longitude": "133.2967034252181",
        "orbital_period": "1266.777799910526",
        "perihelion_distance": "1.194186496892277",
        "perihelion_argument": "187.985047248771",
        "aphelion_distance": "3.388266372859677",
        "perihelion_time": "2457974.871534239076",
        "mean_anomaly": "356.4841882085541",
        "mean_motion": ".2841855927893804",
        "equinox": "J2000",
        "orbit_class": {
            "orbit_class_type": "AMO",
            "orbit_class_description": "Near-Earth asteroid orbits similar to that of 1221 Amor",
            "orbit_class_range": "1.017 AU < q (perihelion) < 1.3 AU"
        }
    },
    "is_sentry_object": false
}